#full_name,a,e,i,om,w,q,ad,per_y,data_arc,condition_code,n_obs_used,n_del_obs_used,n_dop_obs_used,H,rot_per
"       (2014 FH54)",2.720220371820317,.8703280490615047,15.31811642013255,13.98983297903605,48.63102230366993,.3527362825965795,5.087704461044055,4.48656883586694,7,9,29,,,22.2,
"       (2014 FY56)",1.729362101638396,.3842464601295605,34.47156963452785,25.99404600129633,66.77058295908336,1.064860835801625,2.393863367475167,2.2742442652456,9,8,16,,,21.3,
"       (2014 GA)",1.029803336206106,.05890124564219471,9.651740241900781,10.10637655982111,264.3177086205289,.9691466369370789,1.090460035475134,1.04505619474126,5,6,41,,,26.4,
"       (2014 GF1)",2.23840567387811,.5299326923985269,7.820484684791475,192.1017800313027,356.7245609846807,1.052201328439744,3.424610019316475,3.3490096524158,3,8,21,,,26.0,
"       (2014 GG1)",1.486168863939022,.3452731606417537,5.019781571719844,182.9810218092842,335.9389496321074,.9730346430394317,1.999303084838612,1.81180076959277,11,7,35,,,26.3,
"       (2014 GH1)",1.955745616518591,.3397814202114244,1.119960360072695,321.1110946098194,231.0814123009029,1.291219593365637,2.620271639671546,2.73512230075229,28,7,45,,,22.1,
"       (2014 GJ1)",.9428154730137137,.2732487422765943,4.955289275213672,23.98418892927438,40.51045746035104,.685192330813804,1.200438615213623,0.915478721139168,25,5,44,,,24.2,
"       (2014 GK1)",2.216427814592481,.5230827918438266,4.287027399926283,9.27857931716996,285.3435706818404,1.057052565415135,3.375803063769827,3.29980738133856,4735,0,66,,,19.7,
"       (2014 GL1)",1.338865461644008,.6471330691287615,4.82166404599459,12.47005989962079,60.04939729266136,.4724413462998249,2.205289576988191,1.54922183633154,5,9,23,,,24.8,
"       (2014 GN1)",2.651410379852435,.749611177075251,2.961735707709398,193.0972512800076,80.31006942992087,.6638835241017126,4.638937235603157,4.3174133539091,12,7,90,,,24.6,0.2758
"       (2014 GQ1)",2.169514471251705,.5680103966622172,22.50542780569954,22.06430509546254,117.9636177684763,.9372076958716035,3.401821246631806,3.19559718023541,35,7,81,,,21.7,
"       (2014 GR1)",1.295220756957646,.2841456155027375,5.810916175496689,168.5773439039671,89.99257849068081,.9271894577599943,1.663252056155298,1.47408964642011,2,8,18,,,24.0,
"       (2014 GS1)",.904077892686732,.3690254237836497,11.93123500605482,193.5342545938663,232.4828760523096,.5704501652045818,1.237705620168882,0.859640714960136,1,6,38,,,26.7,
"       (2014 GF17)",2.30946369967199,.4450928434463116,15.77531254570928,195.2481712152141,351.6933679141748,1.281537934748945,3.337389464595034,3.50973973730466,22,7,26,,,23.1,
"       (2014 GH17)",1.659270921305618,.303539280487323,41.78194738574382,198.736788762116,57.65908807559378,1.155617019718973,2.162924822892263,2.13739188235656,712,1,53,,,21.9,
"       (2014 GO17)",2.446467589889865,.645721409762535,6.81618876236709,18.46934440873547,119.4141283415818,.8667310888078299,4.026204090971899,3.82663819776273,26,4,121,0,1,23.1,
"       (2014 GP17)",2.227101068705224,.5601095191665546,3.601863806264253,38.28950034574606,189.5995175141272,.979680559977421,3.474521577433027,3.32367148968997,5,4,44,3,1,25.2,
"       (2014 GQ17)",.8536119219779877,.2470623245057501,.09123627814701511,79.0651701747173,330.8803627092768,.6427165763082852,1.06450726764769,0.788676517915087,25,6,92,,,27.1,0.0217
"       (2014 GC34)",1.042827400631548,.7150223505500758,13.77500680137749,13.43849579125429,39.56189958286892,.2971825014139529,1.788472299849143,1.06494420118446,3,9,9,,,23.1,
"       (2014 GD34)",1.150873572455269,.08733049026873785,8.552545674163145,22.72640322669755,143.711648818881,1.050367219135417,1.251379925775121,1.23466639705557,15,7,21,,,25.6,
"       (2014 GS34)",1.97467270500688,.4882602527700977,6.98222819475371,186.9836857921038,44.5176573291644,1.010518510922008,2.938826899091751,2.77492268309999,9,8,25,,,24.3,
"       (2014 GT34)",.8520149497834111,.3208850071974584,34.76332534656,10.78552838441002,5.105494582993895,.5786161264898191,1.125413773077003,0.786464320823656,30,7,60,,,21.7,
"       (2014 GU34)",1.599721574525273,.3781711345306621,5.784364201064919,14.47636361943602,158.3498951197888,.9947530517538733,2.204690097296673,2.02336766408531,3,7,23,,,25.6,
"       (2014 GC35)",1.018101282278892,.3063561422466813,33.11675791485925,198.0772845880293,154.4396063540668,.706199701023531,1.330002863534252,1.02729382809102,374,2,33,,,22.4,
"       (2014 GD35)",1.834845012137945,.3716258597107126,40.60659019042921,193.5059014548392,56.29930703384755,1.152969157066268,2.516720867209622,2.48546287608147,96,5,35,,,21.8,
"       (2014 GE35)",1.890756652989487,.5212128846996164,19.19078250230206,223.5443315697827,231.8814669561031,.9052699236198448,2.876243382359128,2.59993001689792,1180,2,55,,,20.2,
"       (2014 GF35)",2.515073953458171,.4888925532966338,7.880567393809257,2.741880478447072,148.7392420332888,1.285473026622147,3.744674880294196,3.98872726382643,4,9,17,,,22.1,
"       (2014 GG35)",1.83001868447544,.3376073242690449,4.127299085117621,348.6517595856561,254.4280912501177,1.212190973047329,2.447846395903551,2.47566278417175,1917,1,64,,,21.9,
"       (2014 GH35)",2.214601090736182,.5418673535010368,9.503043595566314,23.43209418204896,258.2954146120744,1.014581058638458,3.414621122833907,3.29572879507245,138,5,58,,,21.4,
"       (2014 GJ35)",1.516532515255985,.6330825460094051,33.86393089703922,193.1883664131249,114.0317144346868,.5564422493916791,2.476622781120291,1.86760828403803,325,3,126,,,20.3,
"       (2014 GK35)",1.644159068067767,.6655751997638657,5.922230327508926,203.4860252344919,251.0080208933675,.5498475678949918,2.738470568240543,2.10825893892636,4,8,47,,,24.4,
"       (2014 GL35)",2.138159810733277,.7803834765074787,7.834182773672639,224.5412569673117,218.268559845729,.4695752243046696,3.806744397161885,3.12657208152049,23,7,63,,,20.6,
"       (2014 GM35)",2.485677634571572,.7846205125566716,4.187486483123252,194.040616445658,268.9697262474546,.53536397488337,4.435991294259773,3.91900131564043,1,8,17,,,26.8,
"       (2014 GY44)",1.188763520054708,.391209453764092,10.19074094168329,188.6997467536183,271.593793300293,.7237079927194267,1.65381904738999,1.29613848591202,54,5,35,,,25.4,
"       (2014 GC45)",1.899410784122889,.376181251309738,10.70688163702094,36.32528576354101,198.1005493232332,1.18488805860033,2.613933509645448,2.61780053068275,55,6,77,,,22.7,
"       (2014 GF45)",.9838324497000398,.2350331703102248,15.96120730745766,198.893536735372,170.4202342613761,.7525991899929647,1.215065709407115,0.975865391842101,773,2,52,,,23.3,
"       (2014 GG45)",1.284075098626382,.2429335512431909,38.02469851264286,19.66559931474426,215.8164079134386,.9721301748541241,1.596020022398639,1.45510334237146,2,8,38,,,24.8,
"       (2014 GH45)",1.166621595564767,.1304093186204849,25.39713841617651,194.9361847731636,298.1703458587799,1.014483268199223,1.318759922930311,1.26009480030666,29,8,24,,,24.9,
"       (2014 GJ45)",.9379709106234028,.3278697493140421,21.32389716612745,22.0417676912013,312.34987873,.6304386232934439,1.245503197953362,0.908431650372391,17,7,56,,,23.6,
"       (2014 GK45)",1.618053488209424,.3488624335153601,4.864936729848004,29.10660539298714,157.9514284695536,1.053575410754668,2.182531565664181,2.05824710545836,29,7,49,,,26.1,
"       (2014 GQ45)",2.111790808592417,.5181016270820411,6.455070844853319,193.8574853946853,7.655748533511584,1.017668554603786,3.205913062581047,3.06891277638289,8,7,396,,,25.5,
"       (2014 GR45)",2.006586020433248,.5274398391442801,2.068753432261697,130.3876472019695,5.698297901289246,.9482326125867745,3.06493942827972,2.84246336270071,15,8,30,,,23.9,
"       (2014 GS45)",2.027019593011577,.4671169488881541,9.569977872664724,186.8537085828252,4.204797534517861,1.080164385387501,2.973874800635653,2.88599199486686,26,7,36,,,24.4,
"       (2014 GT45)",1.173828052757797,.06672383219541786,17.83278579799267,191.4423519524963,323.9906276038839,1.095505746739311,1.252150358776282,1.27178860279761,26,7,31,,,23.7,
"       (2014 GV48)",1.853765598376131,.4304947533138884,3.724761298665244,208.5310106765984,353.2670862124606,1.055729234401426,2.651801962350837,2.52400627247624,12,7,18,,,25.8,
"       (2014 GB49)",2.506807356359533,.6162955635600246,14.39018371733035,13.69775566852624,208.6553041909591,.9618731039355192,4.051741608783546,3.96907808488052,1,7,51,,,25.8,
"       (2014 GC49)",.7347834835877235,.6440697830550041,6.429161852022429,193.2888053874391,207.5491572360565,.2615316447209783,1.208035322454469,0.629864716374472,1,6,13,,,28.6,
"       (2014 GG49)",1.401554740753215,.4058217094790119,4.32547840550491,35.37479265541907,239.9393817360858,.8327733999323321,1.970336081574099,1.65929383413104,10,7,44,,,25.7,
"       (2014 GL49)",1.239143299108643,.521649614600968,4.756869442683223,83.07926435229543,27.5535385545872,.5927446746932473,1.885541923524039,1.37940088824741,894,1,91,,,20.7,
"       (2014 GB50)",2.275954688655079,.4316170539135317,24.18872307075011,188.2976426960988,306.9433908922842,1.293613831097085,3.258295546213073,3.43363098689916,17,7,23,,,20.4,
"       (2014 GD50)",1.762732767389599,.5225190459701364,35.01976970870443,58.44629331194005,250.2525318235988,.8416713234728875,2.683794211306311,2.34038830238309,232,3,79,,,20.0,
"       (2014 GE53)",2.667129354193164,.5138750463874083,27.31644935520865,130.55097056395,113.9997670659847,1.296558133585934,4.037700574800395,4.35586409498214,1532,1,50,,,18.5,
"       (2014 HW)",1.079020654815276,.1150922602960172,4.49085967863538,34.33049341169745,243.6993524601519,.9548337287464974,1.203207580884055,1.1208637902852,3,6,32,,,28.4,
"       (2014 HK2)",2.430808927680179,.5308855225679825,13.43997926008135,74.30426204593894,187.310745920015,1.14032765984577,3.721290195514587,3.78995834177674,81,6,28,,,20.4,
"       (2014 HL2)",2.081396875608406,.5510316280503342,.4554460442411302,112.5207086694984,146.4582950837026,.9344813666230271,3.228312384593785,3.00289778588951,8,8,29,,,26.2,
